{
  "type": "FeatureCollection",
  "features": [
    {
      "type": "Feature",
      "properties": {
        "norad_id": 30827,
        "name": "FENGYUN 1C DEB",
        "group": "fengyun-1c-debris",
        "lat": 55.48128915964831,
        "lon": -48.421600346159,
        "alt_km": 785.906179841556,
        "timestamp": "2025-12-05T19:30:25.844506+00:00",
        "meta_object_name": "FENGYUN 1C DEB",
        "meta_object_id": "1999-025AVM",
        "meta_epoch": "2025-12-03T05:26:11.474016",
        "meta_mean_motion": 14.37538922,
        "meta_eccentricity": 0.0043378,
        "meta_inclination": 99.0025,
        "meta_ra_of_asc_node": 322.1987,
        "meta_arg_of_pericenter": 207.4055,
        "meta_mean_anomaly": 152.4842,
        "meta_ephemeris_type": 0,
        "meta_classification_type": "U",
        "meta_norad_cat_id": 30827,
        "meta_element_set_no": 999,
        "meta_rev_at_epoch": 96412,
        "meta_bstar": 0.0034983,
        "meta_mean_motion_dot": 0.00010565,
        "meta_mean_motion_ddot": 0,
        "tle_line1": "1 30827U 99025AVM 25337.22652169  .00010565  00000+0  34983-2 0  9993",
        "tle_line2": "2 30827  99.0025 322.1987 0043378 207.4055 152.4842 14.37538922964129"
      },
      "geometry": {
        "type": "Point",
        "coordinates": [
          -48.421600346159,
          55.48128915964831
        ]
      }
    },
    {
      "type": "Feature",
      "properties": {
        "norad_id": 30828,
        "name": "FENGYUN 1C DEB",
        "group": "fengyun-1c-debris",
        "lat": -2.9993242737669163,
        "lon": -93.92787428365713,
        "alt_km": 502.7829816808753,
        "timestamp": "2025-12-05T19:30:25.844516+00:00",
        "meta_object_name": "FENGYUN 1C DEB",
        "meta_object_id": "1999-025AVN",
        "meta_epoch": "2025-12-04T13:29:17.549088",
        "meta_mean_motion": 14.76543176,
        "meta_eccentricity": 0.0210188,
        "meta_inclination": 98.3768,
        "meta_ra_of_asc_node": 85.2163,
        "meta_arg_of_pericenter": 204.7768,
        "meta_mean_anomaly": 173.9939,
        "meta_ephemeris_type": 0,
        "meta_classification_type": "U",
        "meta_norad_cat_id": 30828,
        "meta_element_set_no": 999,
        "meta_rev_at_epoch": 98536,
        "meta_bstar": 0.0036746,
        "meta_mean_motion_dot": 0.00037027,
        "meta_mean_motion_ddot": 0,
        "tle_line1": "1 30828U 99025AVN 25338.56200867  .00037027  00000+0  36746-2 0  9997",
        "tle_line2": "2 30828  98.3768  85.2163 0210188 204.7768 173.9939 14.76543176985369"
      },
      "geometry": {
        "type": "Point",
        "coordinates": [
          -93.92787428365713,
          -2.9993242737669163
        ]
      }
    },
    {
      "type": "Feature",
      "properties": {
        "norad_id": 30829,
        "name": "FENGYUN 1C DEB",
        "group": "fengyun-1c-debris",
        "lat": 55.38645594902636,
        "lon": 165.5754369413369,
        "alt_km": 875.3200080923625,
        "timestamp": "2025-12-05T19:30:25.844527+00:00",
        "meta_object_name": "FENGYUN 1C DEB",
        "meta_object_id": "1999-025AVP",
        "meta_epoch": "2025-12-04T05:25:12.671904",
        "meta_mean_motion": 14.08633618,
        "meta_eccentricity": 0.0036376,
        "meta_inclination": 98.7751,
        "meta_ra_of_asc_node": 331.0996,
        "meta_arg_of_pericenter": 358.8254,
        "meta_mean_anomaly": 1.2824,
        "meta_ephemeris_type": 0,
        "meta_classification_type": "U",
        "meta_norad_cat_id": 30829,
        "meta_element_set_no": 999,
        "meta_rev_at_epoch": 96313,
        "meta_bstar": 0.00069875,
        "meta_mean_motion_dot": 1.166e-05,
        "meta_mean_motion_ddot": 0,
        "tle_line1": "1 30829U 99025AVP 25338.22584111  .00001166  00000+0  69875-3 0  9993",
        "tle_line2": "2 30829  98.7751 331.0996 0036376 358.8254   1.2824 14.08633618963131"
      },
      "geometry": {
        "type": "Point",
        "coordinates": [
          165.5754369413369,
          55.38645594902636
        ]
      }
    },
    {
      "type": "Feature",
      "properties": {
        "norad_id": 30830,
        "name": "FENGYUN 1C DEB",
        "group": "fengyun-1c-debris",
        "lat": -66.05949615951079,
        "lon": 128.15018002084128,
        "alt_km": 841.8653659550655,
        "timestamp": "2025-12-05T19:30:25.844537+00:00",
        "meta_object_name": "FENGYUN 1C DEB",
        "meta_object_id": "1999-025AVQ",
        "meta_epoch": "2025-12-04T19:06:35.255232",
        "meta_mean_motion": 14.12217275,
        "meta_eccentricity": 0.00303294,
        "meta_inclination": 98.729,
        "meta_ra_of_asc_node": 327.4057,
        "meta_arg_of_pericenter": 211.6948,
        "meta_mean_anomaly": 270.3855,
        "meta_ephemeris_type": 0,
        "meta_classification_type": "U",
        "meta_norad_cat_id": 30830,
        "meta_element_set_no": 999,
        "meta_rev_at_epoch": 96487,
        "meta_bstar": 0.00046257286,
        "meta_mean_motion_dot": 8.11e-06,
        "meta_mean_motion_ddot": 0,
        "tle_line1": "1 30830U 99025AVQ 25338.79624138  .00000811  00000+0  46257-3 0  9996",
        "tle_line2": "2 30830  98.7290 327.4057 0030329 211.6948 270.3855 14.12217275964873"
      },
      "geometry": {
        "type": "Point",
        "coordinates": [
          128.15018002084128,
          -66.05949615951079
        ]
      }
    },
    {
      "type": "Feature",
      "properties": {
        "norad_id": 30831,
        "name": "FENGYUN 1C DEB",
        "group": "fengyun-1c-debris",
        "lat": -20.096604468715967,
        "lon": 135.51595480300816,
        "alt_km": 782.1763101453453,
        "timestamp": "2025-12-05T19:30:25.844547+00:00",
        "meta_object_name": "FENGYUN 1C DEB",
        "meta_object_id": "1999-025AVR",
        "meta_epoch": "2025-12-03T05:30:54.696672",
        "meta_mean_motion": 14.31052649,
        "meta_eccentricity": 0.0055822,
        "meta_inclination": 99.3279,
        "meta_ra_of_asc_node": 129.2978,
        "meta_arg_of_pericenter": 61.3241,
        "meta_mean_anomaly": 299.3536,
        "meta_ephemeris_type": 0,
        "meta_classification_type": "U",
        "meta_norad_cat_id": 30831,
        "meta_element_set_no": 999,
        "meta_rev_at_epoch": 65114,
        "meta_bstar": 0.00059432,
        "meta_mean_motion_dot": 1.543e-05,
        "meta_mean_motion_ddot": 0,
        "tle_line1": "1 30831U 99025AVR 25337.22979973  .00001543  00000+0  59432-3 0  9996",
        "tle_line2": "2 30831  99.3279 129.2978 0055822  61.3241 299.3536 14.31052649651142"
      },
      "geometry": {
        "type": "Point",
        "coordinates": [
          135.51595480300816,
          -20.096604468715967
        ]
      }
    },
    {
      "type": "Feature",
      "properties": {
        "norad_id": 30833,
        "name": "FENGYUN 1C DEB",
        "group": "fengyun-1c-debris",
        "lat": 70.48745575090489,
        "lon": -25.62914951876305,
        "alt_km": 796.9404099191024,
        "timestamp": "2025-12-05T19:30:25.844557+00:00",
        "meta_object_name": "FENGYUN 1C DEB",
        "meta_object_id": "1999-025AVT",
        "meta_epoch": "2025-11-30T16:08:15.979488",
        "meta_mean_motion": 14.26699546,
        "meta_eccentricity": 0.00328082,
        "meta_inclination": 99.8434,
        "meta_ra_of_asc_node": 119.2595,
        "meta_arg_of_pericenter": 214.1796,
        "meta_mean_anomaly": 145.7269,
        "meta_ephemeris_type": 0,
        "meta_classification_type": "U",
        "meta_norad_cat_id": 30833,
        "meta_element_set_no": 999,
        "meta_rev_at_epoch": 64239,
        "meta_bstar": 0.00062547884,
        "meta_mean_motion_dot": 1.467e-05,
        "meta_mean_motion_ddot": 0,
        "tle_line1": "1 30833U 99025AVT 25334.67240717  .00001467  00000+0  62548-3 0  9998",
        "tle_line2": "2 30833  99.8434 119.2595 0032808 214.1796 145.7269 14.26699546642399"
      },
      "geometry": {
        "type": "Point",
        "coordinates": [
          -25.62914951876305,
          70.48745575090489
        ]
      }
    },
    {
      "type": "Feature",
      "properties": {
        "norad_id": 30836,
        "name": "FENGYUN 1C DEB",
        "group": "fengyun-1c-debris",
        "lat": -80.79570931737916,
        "lon": 120.84574594195657,
        "alt_km": 841.7289072301164,
        "timestamp": "2025-12-05T19:30:25.844568+00:00",
        "meta_object_name": "FENGYUN 1C DEB",
        "meta_object_id": "1999-025AVW",
        "meta_epoch": "2025-12-04T21:50:06.834048",
        "meta_mean_motion": 14.11918791,
        "meta_eccentricity": 0.0025466,
        "meta_inclination": 98.7458,
        "meta_ra_of_asc_node": 11.7676,
        "meta_arg_of_pericenter": 267.5609,
        "meta_mean_anomaly": 92.2647,
        "meta_ephemeris_type": 0,
        "meta_classification_type": "U",
        "meta_norad_cat_id": 30836,
        "meta_element_set_no": 999,
        "meta_rev_at_epoch": 61893,
        "meta_bstar": 0.000608,
        "meta_mean_motion_dot": 1.071e-05,
        "meta_mean_motion_ddot": 0,
        "tle_line1": "1 30836U 99025AVW 25338.90980132  .00001071  00000+0  60800-3 0  9993",
        "tle_line2": "2 30836  98.7458  11.7676 0025466 267.5609  92.2647 14.11918791618938"
      },
      "geometry": {
        "type": "Point",
        "coordinates": [
          120.84574594195657,
          -80.79570931737916
        ]
      }
    }
  ]
}